$$SOE
2461302.500000000, A.D. 2026-Sep-19 00:00:00.0000, 4.957710867500418E+07, 1.429100545816203E+08, -6.460277493456826E+05,
2461309.500000000, A.D. 2026-Sep-26 00:00:00.0000, 3.358139027703983E+07, 1.475432303519361E+08, -9.859407055118755E+05,
2461316.500000000, A.D. 2026-Oct-03 00:00:00.0000, 1.711554842256039E+07, 1.501107088950075E+08, -1.312047454112604E+06,
2461323.500000000, A.D. 2026-Oct-10 00:00:00.0000, 4.092336055417017E+05, 1.505668913782795E+08, -1.619693715901732E+06,
2461330.500000000, A.D. 2026-Oct-17 00:00:00.0000, -1.630241644723737E+07, 1.488837063531295E+08, -1.904315260680608E+06,
2461337.500000000, A.D. 2026-Oct-24 00:00:00.0000, -3.277803616837487E+07, 1.450515242671369E+08, -2.161434380471177E+06,
2461344.500000000, A.D. 2026-Oct-31 00:00:00.0000, -4.876938868686816E+07, 1.390807233364240E+08, -2.386665184906617E+06,
2461351.500000000, A.D. 2026-Nov-07 00:00:00.0000, -6.402095744932297E+07, 1.310039537790288E+08, -2.575730754867211E+06,
2461358.500000000, A.D. 2026-Nov-14 00:00:00.0000, -7.826994859865625E+07, 1.208791470756710E+08, -2.724495776749529E+06,
2461365.500000000, A.D. 2026-Nov-21 00:00:00.0000, -9.124693408341286E+07, 1.087933027404806E+08, -2.829018913596392E+06,
2461372.500000000, A.D. 2026-Nov-28 00:00:00.0000, -1.026774314844833E+08, 9.486704591851127E+07, -2.885630412834562E+06,
2461379.500000000, A.D. 2026-Dec-05 00:00:00.0000, -1.122847898660070E+08, 7.925988168125099E+07, -2.891041277063146E+06,
2461386.500000000, A.D. 2026-Dec-12 00:00:00.0000, -1.197948354518827E+08, 6.217595604012696E+07, -2.842489818684328E+06,
2461393.500000000, A.D. 2026-Dec-19 00:00:00.0000, -1.249427964973238E+08, 4.386994432719694E+07, -2.737930770184090E+06,
2461400.500000000, A.D. 2026-Dec-26 00:00:00.0000, -1.274830342491471E+08, 2.465241697285210E+07, -2.576269558037583E+06,
2461407.500000000, A.D. 2027-Jan-02 00:00:00.0000, -1.272020051421180E+08, 4.893679501534381E+06, -2.357638637610503E+06,
2461414.500000000, A.D. 2027-Jan-09 00:00:00.0000, -1.239345885494469E+08, -1.497532260695613E+07, -2.083703110710139E+06,
2461421.500000000, A.D. 2027-Jan-16 00:00:00.0000, -1.175833487953527E+08, -3.446681254039304E+07, -1.757968611270379E+06,
2461428.500000000, A.D. 2027-Jan-23 00:00:00.0000, -1.081394093777376E+08, -5.304664147699570E+07, -1.386046590976924E+06,
2461435.500000000, A.D. 2027-Jan-30 00:00:00.0000, -9.570245904372305E+07, -7.015303290398645E+07, -9.758144250665568E+05,
2461442.500000000, A.D. 2027-Feb-06 00:00:00.0000, -8.049623763164498E+07, -8.522422091117752E+07, -5.373975726680234E+05,
2461449.500000000, A.D. 2027-Feb-13 00:00:00.0000, -6.287515602093993E+07, -9.773373881944969E+07, -8.290827546709031E+04,
2461456.500000000, A.D. 2027-Feb-20 00:00:00.0000, -4.331810490002517E+07, -1.072297075583378E+08, 3.740914793032706E+05,
2461463.500000000, A.D. 2027-Feb-27 00:00:00.0000, -2.240741321389056E+07, -1.133722724346805E+08, 8.193760099802762E+05,
2461470.500000000, A.D. 2027-Mar-06 00:00:00.0000, -7.941377369193260E+05, -1.159623954251456E+08, 1.238996007046714E+06,
2461477.500000000, A.D. 2027-Mar-13 00:00:00.0000, 2.084559697506389E+07, -1.149563347456133E+08, 1.620226160300486E+06,
2461484.500000000, A.D. 2027-Mar-20 00:00:00.0000, 4.185608223774907E+07, -1.104632391431532E+08, 1.952363416174009E+06,
2461491.500000000, A.D. 2027-Mar-27 00:00:00.0000, 6.164198537705141E+07, -1.027272284405674E+08, 2.227257451790579E+06,
2461498.500000000, A.D. 2027-Apr-03 00:00:00.0000, 7.969741346964514E+07, -9.209857371401525E+07, 2.439525835639514E+06,
2461505.500000000, A.D. 2027-Apr-10 00:00:00.0000, 9.562187788717932E+07, -7.900003883005096E+07, 2.586479495004971E+06,
2461512.500000000, A.D. 2027-Apr-17 00:00:00.0000, 1.091239905807219E+08, -6.389398136120570E+07, 2.667834084313929E+06,
2461519.500000000, A.D. 2027-Apr-24 00:00:00.0000, 1.200156947900485E+08, -4.725411491760584E+07, 2.685300125721300E+06,
2461526.500000000, A.D. 2027-May-01 00:00:00.0000, 1.282005197331663E+08, -2.954381904896028E+07, 2.642135442591589E+06,
2461533.500000000, A.D. 2027-May-08 00:00:00.0000, 1.336590554756589E+08, -1.120121751245143E+07, 2.542720529496893E+06,
2461540.500000000, A.D. 2027-May-15 00:00:00.0000, 1.364340520381660E+08, 7.369798131485743E+06, 2.392192156790074E+06,
2461547.500000000, A.D. 2027-May-22 00:00:00.0000, 1.366166647888498E+08, 2.580387880178880E+07, 2.196149240778072E+06,
2461554.500000000, A.D. 2027-May-29 00:00:00.0000, 1.343346298772833E+08, 4.377519197943341E+07, 1.960430126883501E+06,
2461561.500000000, A.D. 2027-Jun-05 00:00:00.0000, 1.297426220171394E+08, 6.099622204548935E+07, 1.690951664602581E+06,
2461568.500000000, A.D. 2027-Jun-12 00:00:00.0000, 1.230147186526029E+08, 7.721530792073338E+07, 1.393597255769528E+06,
2461575.500000000, A.D. 2027-Jun-19 00:00:00.0000, 1.143387346491249E+08, 9.221358301831476E+07, 1.074144039667103E+06,
2461582.500000000, A.D. 2027-Jun-26 00:00:00.0000, 1.039121379313678E+08, 1.058017706986544E+08, 7.382219230988473E+05,
2461589.500000000, A.D. 2027-Jul-03 00:00:00.0000, 9.193925411207445E+07, 1.178171233985569E+08, 3.912961887539551E+05,
2461596.500000000, A.D. 2027-Jul-10 00:00:00.0000, 7.862949244179676E+07, 1.281206804035997E+08, 3.866570063874125E+04,
2461603.500000000, A.D. 2027-Jul-17 00:00:00.0000, 6.419636402842636E+07, 1.365949464251819E+08, -3.145292261956036E+05,
2461610.500000000, A.D. 2027-Jul-24 00:00:00.0000, 4.885710395888537E+07, 1.431420482808481E+08, -6.632934426845089E+05,
2461617.500000000, A.D. 2027-Jul-31 00:00:00.0000, 3.283274428691679E+07, 1.476824024495006E+08, -1.002761145900905E+06,
2461624.500000000, A.D. 2027-Aug-07 00:00:00.0000, 1.634851111819627E+07, 1.501539166181756E+08, -1.328179975292154E+06,
2461631.500000000, A.D. 2027-Aug-14 00:00:00.0000, -3.655651673337090E+05, 1.505117456857693E+08, -1.634897021607377E+06,
2461638.500000000, A.D. 2027-Aug-21 00:00:00.0000, -1.707392666549519E+07, 1.487286240355763E+08, -1.918349117431797E+06,
2461645.500000000, A.D. 2027-Aug-28 00:00:00.0000, -3.353475088462749E+07, 1.447958089917397E+08, -2.174059812302232E+06,
2461652.500000000, A.D. 2027-Sep-04 00:00:00.0000, -4.949931602622720E+07, 1.387246797836312E+08, -2.397645298242435E+06,
2461659.500000000, A.D. 2027-Sep-11 00:00:00.0000, -6.471160997901659E+07, 1.305490383050317E+08, -2.584832248661570E+06,
2461666.500000000, A.D. 2027-Sep-18 00:00:00.0000, -7.890836122685774E+07, 1.203281564275145E+08, -2.731491349053890E+06,
2461673.500000000, A.D. 2027-Sep-25 00:00:00.0000, -9.181972272257844E+07, 1.081506003094687E+08, -2.833691066480458E+06,
2461680.500000000, A.D. 2027-Oct-02 00:00:00.0000, -1.031709074286171E+08, 9.413882511755142E+07, -2.887777004582781E+06,
2461687.500000000, A.D. 2027-Oct-09 00:00:00.0000, -1.126851529851889E+08, 7.845446178809476E+07, -2.890482838105921E+06,
2461694.500000000, A.D. 2027-Oct-16 00:00:00.0000, -1.200884732310115E+08, 6.130409504082835E+07, -2.839078959269509E+06,
2461701.500000000, A.D. 2027-Oct-23 00:00:00.0000, -1.251167155059804E+08, 4.294514103884567E+07, -2.731564028748777E+06,
2461708.500000000, A.D. 2027-Oct-30 00:00:00.0000, -1.275254479236415E+08, 2.369115969979021E+07, -2.566901714992112E+06,
2461715.500000000, A.D. 2027-Nov-06 00:00:00.0000, -1.271030930260759E+08, 3.915579873462676E+06, -2.345298873667330E+06,
2461722.500000000, A.D. 2027-Nov-13 00:00:00.0000, -1.236874217372526E+08, -1.594759450595905E+07, -2.068511711961905E+06,
2461729.500000000, A.D. 2027-Nov-20 00:00:00.0000, -1.171849350793211E+08, -3.540789186353776E+07, -1.740152501004267E+06,
2461736.500000000, A.D. 2027-Nov-27 00:00:00.0000, -1.075917559287219E+08, -5.392922451916268E+07, -1.365950942674682E+06,
2461743.500000000, A.D. 2027-Dec-04 00:00:00.0000, -9.501349095672281E+07, -7.094908208324295E+07, -9.539065475978665E+05,
2461750.500000000, A.D. 2027-Dec-11 00:00:00.0000, -7.968036165593214E+07, -8.590659960659926E+07, -5.142590526977628E+05,
2461757.500000000, A.D. 2027-Dec-18 00:00:00.0000, -6.195325074475105E+07, -9.827814430153579E+07, -5.921281546694040E+04,
2461764.500000000, A.D. 2027-Dec-25 00:00:00.0000, -4.231678085969035E+07, -1.076166462822214E+08, 3.976141587784141E+05,
2461771.500000000, A.D. 2028-Jan-01 00:00:00.0000, -2.135752904119245E+07, -1.135887368772149E+08, 8.419867421334609E+05,
$$EOE